{
  "type": "FeatureCollection",
  "features": [
    {
      "type": "Feature",
      "properties": {},
      "geometry": {
        "coordinates": [
          [
            [
              13.297795974083982,
              24.302090002477357
            ],
            [
              13.297795974083982,
              5.293256312308046
            ],
            [
              24.930531914702186,
              5.293256312308046
            ],
            [
              24.930531914702186,
              24.302090002477357
            ],
            [
              13.297795974083982,
              24.302090002477357
            ]
          ]
        ],
        "type": "Polygon"
      }
    }
  ]
}